{
  "norad_id": 59731,
  "name": "STARLINK-31817",
  "history": [
    {
      "epoch": "2026-04-17T20:37:48.212256Z",
      "apogee_km": 484.2066629971314,
      "perigee_km": 481.89677520295936,
      "latitude_deg": 2.5775214264665838e-06,
      "longitude_deg": 166.5965297402996,
      "height_km": 482.8764500304007,
      "semi_major_axis_km": 6861.188719100045,
      "eccentricity": 0.00016833,
      "inclination_deg": 43.0056,
      "raan_deg": 322.0343,
      "arg_perigee_deg": 267.6586,
      "mean_anomaly_deg": 92.4073,
      "mean_motion_rev_day": 15.27579124
    },
    {
      "epoch": "2026-04-18T20:10:08.494176Z",
      "apogee_km": 484.2000325894978,
      "perigee_km": 481.89330264044565,
      "latitude_deg": 1.6309133910489813e-05,
      "longitude_deg": 167.0037255058471,
      "height_km": 483.4188227547787,
      "semi_major_axis_km": 6861.1836676149715,
      "eccentricity": 0.0001681,
      "inclination_deg": 43.0036,
      "raan_deg": 316.4927,
      "arg_perigee_deg": 238.9375,
      "mean_anomaly_deg": 121.1312,
      "mean_motion_rev_day": 15.27580811
    },
    {
      "epoch": "2026-04-19T19:42:29.481120Z",
      "apogee_km": 483.96333557768503,
      "perigee_km": 482.1478640157793,
      "latitude_deg": -3.990856302682525e-05,
      "longitude_deg": 167.409999848535,
      "height_km": 483.369815219969,
      "semi_major_axis_km": 6861.192599796732,
      "eccentricity": 0.0001323,
      "inclination_deg": 43.0018,
      "raan_deg": 310.9532,
      "arg_perigee_deg": 233.6783,
      "mean_anomaly_deg": 126.3946,
      "mean_motion_rev_day": 15.27577828
    },
    {
      "epoch": "2026-04-20T06:41:35.701152Z",
      "apogee_km": 484.08952774187037,
      "perigee_km": 482.0613533444466,
      "latitude_deg": 4.657888516996985e-05,
      "longitude_deg": -0.4005659960954996,
      "height_km": 483.19543669459665,
      "semi_major_axis_km": 6861.212440543159,
      "eccentricity": 0.0001478,
      "inclination_deg": 43.0027,
      "raan_deg": 308.3696,
      "arg_perigee_deg": 250.2274,
      "mean_anomaly_deg": 109.8419,
      "mean_motion_rev_day": 15.27571202
    },
    {
      "epoch": "2026-04-21T06:13:56.160192Z",
      "apogee_km": 484.36957080799766,
      "perigee_km": 481.72293797944803,
      "latitude_deg": -4.005401702212623e-05,
      "longitude_deg": 0.008380297977904554,
      "height_km": 483.3970241322464,
      "semi_major_axis_km": 6861.183254393723,
      "eccentricity": 0.00019287,
      "inclination_deg": 43.004,
      "raan_deg": 302.8306,
      "arg_perigee_deg": 244.3212,
      "mean_anomaly_deg": 115.744,
      "mean_motion_rev_day": 15.27580949
    },
    {
      "epoch": "2026-04-24T20:32:32.528256Z",
      "apogee_km": 484.1736222696645,
      "perigee_km": 481.91629340553663,
      "latitude_deg": 9.431000415658115e-06,
      "longitude_deg": 121.50316260071824,
      "height_km": 483.0966177900496,
      "semi_major_axis_km": 6861.181957837601,
      "eccentricity": 0.0001645,
      "inclination_deg": 43.0038,
      "raan_deg": 282.5215,
      "arg_perigee_deg": 255.9285,
      "mean_anomaly_deg": 104.1384,
      "mean_motion_rev_day": 15.27581382
    },
    {
      "epoch": "2026-04-25T20:04:52.443840Z",
      "apogee_km": 483.99094355826765,
      "perigee_km": 482.04923610184505,
      "latitude_deg": 2.252985168588078e-05,
      "longitude_deg": 121.9153879377897,
      "height_km": 482.84167635160026,
      "semi_major_axis_km": 6861.157089830056,
      "eccentricity": 0.0001415,
      "inclination_deg": 43.0025,
      "raan_deg": 276.9834,
      "arg_perigee_deg": 267.3667,
      "mean_anomaly_deg": 92.7023,
      "mean_motion_rev_day": 15.27589687
    },
    {
      "epoch": "2026-04-26T19:37:14.086560Z",
      "apogee_km": 483.93054511613263,
      "perigee_km": 482.1868408427181,
      "latitude_deg": -3.820360197326736e-05,
      "longitude_deg": 122.31951906199363,
      "height_km": 482.99676039155986,
      "semi_major_axis_km": 6861.195692979425,
      "eccentricity": 0.00012707,
      "inclination_deg": 43.0018,
      "raan_deg": 271.4445,
      "arg_perigee_deg": 259.3377,
      "mean_anomaly_deg": 100.7331,
      "mean_motion_rev_day": 15.27576795
    },
    {
      "epoch": "2026-04-27T19:09:34.716672Z",
      "apogee_km": 483.81032301230516,
      "perigee_km": 482.2843956107945,
      "latitude_deg": 2.219910420470101e-06,
      "longitude_deg": 122.72718912164977,
      "height_km": 483.2312106487827,
      "semi_major_axis_km": 6861.184359311549,
      "eccentricity": 0.0001112,
      "inclination_deg": 43.0019,
      "raan_deg": 265.9048,
      "arg_perigee_deg": 237.7267,
      "mean_anomaly_deg": 122.3477,
      "mean_motion_rev_day": 15.2758058
    },
    {
      "epoch": "2026-04-28T10:51:09.496800Z",
      "apogee_km": 483.95807265510666,
      "perigee_km": 482.22492633613365,
      "latitude_deg": 6.679635507634172e-06,
      "longitude_deg": -117.00381121896739,
      "height_km": 482.8718682486738,
      "semi_major_axis_km": 6861.22849949562,
      "eccentricity": 0.0001263,
      "inclination_deg": 43.0025,
      "raan_deg": 262.2132,
      "arg_perigee_deg": 269.7684,
      "mean_anomaly_deg": 90.3023,
      "mean_motion_rev_day": 15.27565839
    },
    {
      "epoch": "2026-04-29T08:49:20.392032Z",
      "apogee_km": 483.9724724321877,
      "perigee_km": 482.0970397443789,
      "latitude_deg": 1.505312205762666e-05,
      "longitude_deg": -92.62076184385568,
      "height_km": 482.71848642615896,
      "semi_major_axis_km": 6861.171756088283,
      "eccentricity": 0.00013667,
      "inclination_deg": 43.0024,
      "raan_deg": 257.0439,
      "arg_perigee_deg": 275.7051,
      "mean_anomaly_deg": 84.3645,
      "mean_motion_rev_day": 15.27584789
    },
    {
      "epoch": "2026-04-30T08:21:41.200128Z",
      "apogee_km": 483.6554649844247,
      "perigee_km": 482.4153766810841,
      "latitude_deg": -3.655173927437085e-06,
      "longitude_deg": -92.21459923058396,
      "height_km": 482.81068677104855,
      "semi_major_axis_km": 6861.172420832754,
      "eccentricity": 9.037e-05,
      "inclination_deg": 43.0008,
      "raan_deg": 251.5035,
      "arg_perigee_deg": 270.1014,
      "mean_anomaly_deg": 89.9734,
      "mean_motion_rev_day": 15.27584567
    },
    {
      "epoch": "2026-05-02T09:00:32.430240Z",
      "apogee_km": 483.4427478750122,
      "perigee_km": 482.71271462760797,
      "latitude_deg": -2.4183245639653937e-05,
      "longitude_deg": -115.37296686730416,
      "height_km": 482.90922865353235,
      "semi_major_axis_km": 6861.21473125131,
      "eccentricity": 5.32e-05,
      "inclination_deg": 43.0001,
      "raan_deg": 240.0565,
      "arg_perigee_deg": 261.2441,
      "mean_anomaly_deg": 98.835,
      "mean_motion_rev_day": 15.27570437
    },
    {
      "epoch": "2026-05-03T08:32:53.300544Z",
      "apogee_km": 483.8099653012341,
      "perigee_km": 482.2957007050909,
      "latitude_deg": 9.147625779534786e-06,
      "longitude_deg": -114.96591113163528,
      "height_km": 482.7479947020354,
      "semi_major_axis_km": 6861.189833003163,
      "eccentricity": 0.00011035,
      "inclination_deg": 43.0005,
      "raan_deg": 234.5172,
      "arg_perigee_deg": 276.168,
      "mean_anomaly_deg": 83.9046,
      "mean_motion_rev_day": 15.27578752
    },
    {
      "epoch": "2026-05-04T08:05:14.161344Z",
      "apogee_km": 483.70094602937934,
      "perigee_km": 482.40733705155435,
      "latitude_deg": -1.8983479455568083e-05,
      "longitude_deg": -114.55938190742071,
      "height_km": 482.9042903722882,
      "semi_major_axis_km": 6861.191141540467,
      "eccentricity": 9.427e-05,
      "inclination_deg": 42.999,
      "raan_deg": 228.9774,
      "arg_perigee_deg": 263.4336,
      "mean_anomaly_deg": 96.6408,
      "mean_motion_rev_day": 15.27578315
    },
    {
      "epoch": "2026-05-05T07:37:34.355136Z",
      "apogee_km": 483.64597427168246,
      "perigee_km": 482.40547605097345,
      "latitude_deg": 1.123065986415381e-05,
      "longitude_deg": -114.15010410647997,
      "height_km": 482.9457372826341,
      "semi_major_axis_km": 6861.162725161328,
      "eccentricity": 9.04e-05,
      "inclination_deg": 42.9981,
      "raan_deg": 223.4375,
      "arg_perigee_deg": 256.576,
      "mean_anomaly_deg": 103.4991,
      "mean_motion_rev_day": 15.27587805
    },
    {
      "epoch": "2026-05-06T05:35:46.459968Z",
      "apogee_km": 483.6725002746716,
      "perigee_km": 482.4830400821147,
      "latitude_deg": 4.1920758697394296e-05,
      "longitude_deg": -89.77238872873366,
      "height_km": 483.04228313619905,
      "semi_major_axis_km": 6861.214770178393,
      "eccentricity": 8.668e-05,
      "inclination_deg": 42.9974,
      "raan_deg": 218.2679,
      "arg_perigee_deg": 251.5079,
      "mean_anomaly_deg": 108.5679,
      "mean_motion_rev_day": 15.27570424
    },
    {
      "epoch": "2026-05-07T14:33:04.219776Z",
      "apogee_km": 483.97635698501927,
      "perigee_km": 482.17323052562097,
      "latitude_deg": 1.3392747948280766e-06,
      "longitude_deg": 126.79875274981734,
      "height_km": 482.70658592016173,
      "semi_major_axis_km": 6861.21179375532,
      "eccentricity": 0.0001314,
      "inclination_deg": 43.0018,
      "raan_deg": 210.5165,
      "arg_perigee_deg": 279.2581,
      "mean_anomaly_deg": 80.8122,
      "mean_motion_rev_day": 15.27571418
    },
    {
      "epoch": "2026-05-08T12:31:14.437632Z",
      "apogee_km": 484.32483336140194,
      "perigee_km": 481.7436607382624,
      "latitude_deg": -2.3352308568348064e-05,
      "longitude_deg": 151.183293680609,
      "height_km": 482.8711721127837,
      "semi_major_axis_km": 6861.171247049832,
      "eccentricity": 0.0001881,
      "inclination_deg": 43.0031,
      "raan_deg": 205.3459,
      "arg_perigee_deg": 267.3574,
      "mean_anomaly_deg": 92.7062,
      "mean_motion_rev_day": 15.27584959
    }
  ]
}